{"type":"FeatureCollection","source":"OpenGISData-Thailand (chingchai), simplified","features":[{"type":"Feature","properties":{"kind":"province","name":"กาญจนบุรี","name_en":"Kanchanaburi"},"geometry":{"type":"Polygon","coordinates":[[[99.4702,13.80635],[99.46674,13.79533],[99.45327,13.78092],[99.41282,13.77337],[99.41005,13.76794],[99.35788,13.75247],[99.31605,13.76695],[99.30909,13.77551],[99.29515,13.77349],[99.26999,13.74555],[99.22303,13.74772],[99.20128,13.72944],[99.17724,13.73394],[99.17303,13.73982],[99.16747,13.73415],[99.16762,13.72611],[99.16195,13.72575],[99.15488,13.73516],[99.15429,13.75469],[99.12281,13.77175],[99.11778,13.79492],[99.12114,13.81321],[99.11421,13.81994],[99.11445,13.83035],[99.09942,13.8378],[99.10092,13.85432],[99.111,13.86641],[99.10952,13.89079],[99.10483,13.89542],[99.09453,13.89014],[99.08086,13.89182],[99.06777,13.9065],[99.05984,13.92925],[99.03733,13.94515],[99.0188,13.94731],[99.01192,13.98362],[98.99814,14.01915],[98.97097,14.0339],[98.96803,14.08032],[98.95974,14.09665],[98.94559,14.09237],[98.92461,14.1088],[98.89978,14.10842],[98.87613,14.12536],[98.86839,14.14593],[98.83948,14.16342],[98.82889,14.1758],[98.81828,14.17272],[98.79848,14.1924],[98.78541,14.19475],[98.77483,14.2072],[98.75625,14.21433],[98.73192,14.24104],[98.7271,14.23846],[98.70533,14.25351],[98.69809,14.2747],[98.68095,14.27419],[98.6679,14.28916],[98.64225,14.30141],[98.63107,14.31585],[98.61458,14.31305],[98.60055,14.32379],[98.59293,14.34491],[98.597,14.36796],[98.59362,14.37677],[98.58969,14.37044],[98.57602,14.36867],[98.57331,14.38069],[98.56489,14.3849],[98.56292,14.39726],[98.55694,14.40369],[98.55766,14.41988],[98.54791,14.42319],[98.5493,14.43482],[98.54232,14.44458],[98.53379,14.44297],[98.51141,14.4774],[98.50958,14.49095],[98.50454,14.49568],[98.50519,14.50846],[98.49796,14.51249],[98.49205,14.54002],[98.48413,14.53404],[98.46949,14.53535],[98.46152,14.53097],[98.45579,14.55617],[98.45965,14.57821],[98.44484,14.59266],[98.43747,14.613],[98.36647,14.66629],[98.36346,14.68825],[98.35287,14.69887],[98.34504,14.69978],[98.33664,14.71084],[98.32973,14.70615],[98.32348,14.7097],[98.29708,14.75022],[98.29429,14.76982],[98.28322,14.7751],[98.277,14.79686],[98.25408,14.81397],[98.24715,14.83185],[98.25853,14.84345],[98.26083,14.85688],[98.22987,14.88945],[98.23416,14.89734],[98.24086,14.89843],[98.2501,14.91577],[98.2436,14.92322],[98.24343,14.93901],[98.22853,14.94825],[98.23247,14.96737],[98.20889,14.98288],[98.21272,15.01958],[98.22447,15.02694],[98.2351,15.0428],[98.22106,15.05513],[98.21024,15.07726],[98.20492,15.07745],[98.18419,15.09652],[98.18281,15.11366],[98.19538,15.13454],[98.18956,15.14055],[98.1902,15.14919],[98.20003,15.15577],[98.20166,15.16527],[98.21364,15.18022],[98.20777,15.18992],[98.20949,15.2],[98.19895,15.21046],[98.20196,15.21489],[98.19771,15.23253],[98.21373,15.23553],[98.22244,15.22376],[98.23643,15.21945],[98.25792,15.22354],[98.28018,15.27013],[98.30349,15.28028],[98.29446,15.29764],[98.30057,15.30353],[98.29596,15.30848],[98.2984,15.31313],[98.37511,15.28189],[98.40214,15.25445],[98.41699,15.27281],[98.40897,15.28713],[98.4141,15.29442],[98.40204,15.30589],[98.38809,15.30352],[98.40072,15.30961],[98.39998,15.32156],[98.41497,15.32319],[98.40991,15.33646],[98.41642,15.36338],[98.43122,15.36794],[98.43562,15.3617],[98.4442,15.37121],[98.45534,15.36787],[98.44962,15.38305],[98.45923,15.38613],[98.46312,15.37594],[98.47116,15.37225],[98.48148,15.37777],[98.48161,15.39045],[98.49008,15.39379],[98.50126,15.38888],[98.509,15.37587],[98.51606,15.37965],[98.52482,15.37086],[98.53771,15.37063],[98.54763,15.35896],[98.54458,15.35432],[98.55089,15.3447],[98.5474,15.34276],[98.54965,15.33779],[98.55637,15.33473],[98.57945,15.37362],[98.58546,15.47102],[98.55302,15.6023],[98.56302,15.63944],[98.55855,15.65111],[98.58313,15.66036],[98.59023,15.64485],[98.60701,15.64123],[98.61257,15.64449],[98.62696,15.63852],[98.62248,15.6306],[98.62583,15.62631],[98.64065,15.63806],[98.64792,15.63322],[98.66106,15.59883],[98.72368,15.51757],[98.71801,15.51285],[98.71879,15.50631],[98.70338,15.50983],[98.70262,15.50152],[98.72929,15.48856],[98.73737,15.47948],[98.74706,15.48268],[98.75921,15.47247],[98.75491,15.45854],[98.75922,15.45143],[98.75447,15.44109],[98.77866,15.42386],[98.78316,15.40873],[98.79259,15.40258],[98.82951,15.35574],[98.83139,15.34568],[98.83956,15.34858],[98.87098,15.32487],[98.89137,15.29008],[98.88649,15.27542],[98.91162,15.26839],[98.92272,15.24651],[98.94326,15.25272],[98.95536,15.24743],[98.96404,15.20599],[98.99409,15.16515],[99.00047,15.16424],[99.0066,15.14442],[99.00029,15.13739],[98.99769,15.1051],[99.00655,15.09834],[99.00988,15.08612],[99.00031,15.07133],[99.0098,15.06924],[99.02928,15.04857],[99.05093,15.04296],[99.06798,15.04761],[99.07402,15.04038],[99.08514,15.03901],[99.10749,15.04669],[99.11343,15.04421],[99.11892,15.05469],[99.13053,15.04944],[99.14289,15.05194],[99.14717,15.04733],[99.13544,15.0379],[99.16211,15.01521],[99.1808,15.0174],[99.19236,15.02902],[99.20432,15.01445],[99.23368,15.01227],[99.24953,14.99975],[99.25622,14.98728],[99.26066,14.99107],[99.2772,14.99049],[99.28315,14.99794],[99.3043,14.98098],[99.3209,14.94916],[99.31035,14.93568],[99.322,14.92293],[99.31777,14.89533],[99.31353,14.88389],[99.30531,14.88275],[99.2919,14.86505],[99.28117,14.86164],[99.2939,14.83137],[99.30284,14.82606],[99.30885,14.81278],[99.33033,14.80706],[99.34083,14.78576],[99.35879,14.77139],[99.36621,14.77367],[99.37279,14.76715],[99.39014,14.76579],[99.41159,14.77311],[99.42118,14.78135],[99.43645,14.77425],[99.43182,14.75262],[99.44395,14.74215],[99.44254,14.73198],[99.48097,14.7088],[99.49631,14.70453],[99.50884,14.70886],[99.51618,14.70252],[99.53345,14.70809],[99.55732,14.7307],[99.57168,14.73228],[99.5777,14.75129],[99.57102,14.75998],[99.5696,14.7885],[99.61248,14.7821],[99.63265,14.80117],[99.65522,14.80377],[99.68122,14.78436],[99.68697,14.77403],[99.69537,14.77296],[99.70171,14.76141],[99.71459,14.75472],[99.74235,14.75367],[99.75416,14.74301],[99.76179,14.74543],[99.77761,14.73964],[99.78814,14.74383],[99.80155,14.73451],[99.79627,14.72482],[99.79925,14.71614],[99.79305,14.71045],[99.80129,14.69176],[99.79874,14.67766],[99.81027,14.66856],[99.82096,14.6508],[99.82181,14.63324],[99.80569,14.61984],[99.79816,14.56793],[99.79544,14.56249],[99.79192,14.56396],[99.79514,14.54708],[99.81825,14.5278],[99.8152,14.52153],[99.82141,14.50113],[99.81679,14.43302],[99.82923,14.38142],[99.81728,14.38183],[99.82047,14.35167],[99.81433,14.33773],[99.82424,14.29494],[99.81981,14.27609],[99.8248,14.26686],[99.82344,14.25024],[99.81376,14.23079],[99.80169,14.22964],[99.79446,14.21824],[99.79679,14.20031],[99.76025,14.17147],[99.77123,14.10208],[99.76813,14.0946],[99.77725,14.09314],[99.79086,14.09964],[99.79682,14.08553],[99.80879,14.08109],[99.81078,14.06546],[99.83367,14.06097],[99.84914,14.05205],[99.84891,14.04306],[99.83714,14.0308],[99.83748,14.01185],[99.82965,13.99832],[99.85285,13.96422],[99.86203,13.96655],[99.87623,13.96195],[99.87974,13.95027],[99.85503,13.91693],[99.83574,13.86641],[99.82267,13.86647],[99.81806,13.82557],[99.81099,13.80913],[99.78312,13.82211],[99.71284,13.82784],[99.67282,13.83993],[99.66707,13.84613],[99.63632,13.81358],[99.61974,13.80135],[99.60592,13.79869],[99.58714,13.77905],[99.5506,13.75953],[99.5322,13.75987],[99.51903,13.7675],[99.51596,13.7641],[99.50541,13.76619],[99.48929,13.78187],[99.48044,13.80051],[99.4702,13.80635]]]}},{"type":"Feature","properties":{"kind":"district","name":"บ่อพลอย","name_en":"Bo Phloi","code":"7103"},"geometry":{"type":"Polygon","coordinates":[[[99.58074,14.26605],[99.58756,14.25283],[99.58235,14.24236],[99.57072,14.23505],[99.57203,14.22354],[99.56335,14.21949],[99.56273,14.20339],[99.57197,14.18584],[99.5701,14.16393],[99.56349,14.15811],[99.56647,14.12645],[99.54055,14.13369],[99.52813,14.14344],[99.48417,14.14034],[99.45457,14.1504],[99.44418,14.16748],[99.4381,14.19354],[99.40039,14.20144],[99.38409,14.21802],[99.38309,14.22545],[99.3556,14.23564],[99.35089,14.2434],[99.33844,14.24559],[99.33715,14.26443],[99.35036,14.27056],[99.35512,14.2821],[99.36378,14.28025],[99.35907,14.28711],[99.35769,14.30339],[99.36598,14.31322],[99.35941,14.33063],[99.35139,14.33833],[99.35939,14.3468],[99.35337,14.35908],[99.34265,14.36792],[99.33822,14.38375],[99.32428,14.39053],[99.3188,14.41697],[99.32088,14.4493],[99.30966,14.46183],[99.30489,14.48203],[99.30966,14.49791],[99.30383,14.5368],[99.29548,14.54011],[99.27856,14.5664],[99.27582,14.59742],[99.2818,14.61153],[99.27799,14.62019],[99.26078,14.6329],[99.25478,14.64877],[99.25659,14.66],[99.26218,14.66294],[99.26696,14.68238],[99.27347,14.6754],[99.322,14.69878],[99.3305,14.69733],[99.33478,14.70283],[99.34068,14.70156],[99.33899,14.68718],[99.35193,14.67487],[99.35211,14.66361],[99.34296,14.64906],[99.31876,14.63382],[99.32711,14.62388],[99.33744,14.6233],[99.34014,14.60911],[99.3481,14.60359],[99.35836,14.61191],[99.37201,14.61683],[99.37611,14.61449],[99.38233,14.61989],[99.39783,14.61743],[99.40538,14.60682],[99.39957,14.59227],[99.41234,14.57933],[99.42692,14.57748],[99.4199,14.55966],[99.42234,14.5515],[99.4584,14.53338],[99.49627,14.53842],[99.50544,14.54739],[99.51017,14.54195],[99.52424,14.54484],[99.53606,14.55596],[99.54677,14.55684],[99.5438,14.57692],[99.56827,14.59149],[99.57881,14.58868],[99.58194,14.5916],[99.5965,14.57748],[99.59401,14.56499],[99.59618,14.5465],[99.58961,14.52631],[99.58486,14.52452],[99.57705,14.47704],[99.55919,14.43568],[99.55793,14.41604],[99.54139,14.37922],[99.54657,14.37362],[99.54906,14.3587],[99.54556,14.3509],[99.54793,14.34074],[99.54218,14.32929],[99.55443,14.31795],[99.57574,14.31164],[99.58047,14.30567],[99.58904,14.30552],[99.58825,14.29392],[99.58029,14.28365],[99.58098,14.27632],[99.58568,14.27369],[99.58074,14.26605]]]}},{"type":"Feature","properties":{"kind":"district","name":"ศรีสวัสดิ์","name_en":"Si Sawat","code":"7104"},"geometry":{"type":"Polygon","coordinates":[[[99.3188,14.41697],[99.32428,14.39053],[99.33822,14.38375],[99.34265,14.36792],[99.35337,14.35908],[99.35939,14.3468],[99.35139,14.33833],[99.35941,14.33063],[99.36598,14.31322],[99.35769,14.30339],[99.35907,14.28711],[99.34619,14.28937],[99.32012,14.32745],[99.28263,14.34356],[99.25939,14.33665],[99.24461,14.34546],[99.23346,14.33351],[99.21703,14.32989],[99.21821,14.32628],[99.21215,14.32705],[99.20327,14.31738],[99.1976,14.32241],[99.1886,14.30931],[99.20313,14.27209],[99.18554,14.2736],[99.15058,14.28707],[99.12937,14.28013],[99.1282,14.27609],[99.14094,14.2585],[99.13251,14.22662],[99.09841,14.25722],[99.09106,14.28169],[99.08291,14.29118],[99.07676,14.32464],[99.04641,14.37206],[99.03928,14.37306],[99.03046,14.38316],[99.02329,14.40436],[99.01397,14.40504],[99.00811,14.41293],[99.0019,14.42511],[99.0073,14.43008],[99.00505,14.43595],[98.99281,14.43573],[98.99315,14.43936],[98.98204,14.44204],[98.96131,14.45772],[98.94843,14.4772],[98.93479,14.48533],[98.91914,14.52491],[98.9379,14.53289],[98.92885,14.5538],[98.92159,14.5583],[98.93525,14.57121],[98.93011,14.58609],[98.93576,14.59785],[98.93288,14.6007],[98.92723,14.598],[98.9136,14.60682],[98.8868,14.63874],[98.88767,14.65601],[98.8811,14.66229],[98.88069,14.68046],[98.87086,14.69934],[98.8787,14.70438],[98.8782,14.71657],[98.88756,14.72203],[98.90282,14.74743],[98.90754,14.7489],[98.90401,14.76639],[98.91253,14.77003],[98.93701,14.75869],[98.95337,14.76179],[98.96369,14.77786],[98.96515,14.78896],[98.95867,14.80191],[98.97029,14.81905],[98.97034,14.82547],[98.9659,14.82812],[98.97235,14.83449],[98.97603,14.86058],[98.97062,14.86386],[98.97522,14.90142],[98.9714,14.90342],[98.97295,14.92458],[98.96631,14.93153],[98.96848,14.95037],[98.96278,14.9693],[98.97102,14.97509],[98.96672,14.98676],[98.97573,15.02279],[98.98919,15.03013],[98.99471,15.03986],[99.00031,15.07133],[99.0098,15.06924],[99.01975,15.05456],[99.02928,15.04857],[99.05093,15.04296],[99.06798,15.04761],[99.07402,15.04038],[99.08514,15.03901],[99.10749,15.04669],[99.11343,15.04421],[99.11892,15.05469],[99.13053,15.04944],[99.14289,15.05194],[99.14717,15.04733],[99.13544,15.0379],[99.16211,15.01521],[99.1808,15.0174],[99.19236,15.02902],[99.20432,15.01445],[99.23368,15.01227],[99.24953,14.99975],[99.25622,14.98728],[99.26066,14.99107],[99.2772,14.99049],[99.28315,14.99794],[99.3043,14.98098],[99.3209,14.94916],[99.31035,14.93568],[99.322,14.92293],[99.31353,14.88389],[99.30531,14.88275],[99.2919,14.86505],[99.28117,14.86164],[99.2939,14.83137],[99.28083,14.82799],[99.26722,14.83499],[99.2574,14.83492],[99.2474,14.83349],[99.23932,14.82475],[99.25044,14.81516],[99.25092,14.8073],[99.26383,14.79135],[99.27321,14.78597],[99.26894,14.77754],[99.27067,14.76723],[99.27825,14.76285],[99.27835,14.74941],[99.28815,14.74212],[99.2839,14.73791],[99.28511,14.71685],[99.2895,14.71172],[99.28583,14.70423],[99.28782,14.68406],[99.27347,14.6754],[99.26696,14.68238],[99.26218,14.66294],[99.25659,14.66],[99.25478,14.64877],[99.26078,14.6329],[99.27799,14.62019],[99.2818,14.61153],[99.27582,14.59742],[99.27856,14.5664],[99.29548,14.54011],[99.30383,14.5368],[99.30966,14.49791],[99.30489,14.48203],[99.30966,14.46183],[99.32088,14.4493],[99.3188,14.41697]]]}},{"type":"Feature","properties":{"kind":"district","name":"เมืองกาญจนบุรี","name_en":"Mueang Kanchanaburi","code":"7101"},"geometry":{"type":"Polygon","coordinates":[[[99.55877,14.0803],[99.572,14.06692],[99.57121,14.0576],[99.58578,14.04611],[99.58681,14.04066],[99.59481,14.03757],[99.58474,14.03373],[99.58635,14.0232],[99.57996,14.01894],[99.57658,14.00773],[99.56499,14.00688],[99.55035,13.9953],[99.54526,13.97333],[99.55839,13.94439],[99.57427,13.92794],[99.53131,13.91004],[99.48337,13.90425],[99.47983,13.90909],[99.4778,13.9003],[99.47162,13.89606],[99.45279,13.91014],[99.44814,13.92932],[99.43053,13.92581],[99.41689,13.93902],[99.40679,13.93243],[99.39517,13.93527],[99.37275,13.95261],[99.36142,13.9352],[99.35527,13.94019],[99.32215,13.9404],[99.32074,13.94947],[99.31393,13.95452],[99.304,13.948],[99.29503,13.95266],[99.28736,13.93412],[99.27506,13.92642],[99.27222,13.91232],[99.26024,13.90422],[99.26087,13.88559],[99.22945,13.86867],[99.21662,13.87441],[99.20963,13.88505],[99.19686,13.8757],[99.19128,13.88142],[99.18995,13.87823],[99.17746,13.88006],[99.18308,13.87309],[99.17831,13.851],[99.17341,13.84605],[99.17181,13.82797],[99.1721,13.81972],[99.17911,13.81112],[99.1789,13.80028],[99.15712,13.78223],[99.14886,13.76811],[99.14873,13.75658],[99.12281,13.77175],[99.11778,13.79492],[99.12226,13.80326],[99.12114,13.81321],[99.11421,13.81994],[99.11445,13.83035],[99.09942,13.8378],[99.10092,13.85432],[99.111,13.86641],[99.10952,13.89079],[99.10483,13.89542],[99.09453,13.89014],[99.08086,13.89182],[99.06777,13.9065],[99.05984,13.92925],[99.03733,13.94515],[99.0188,13.94731],[99.02531,13.94874],[99.03964,13.9646],[99.04253,13.96017],[99.04666,13.96374],[99.05168,13.98108],[99.06146,13.97972],[99.07001,13.98876],[99.07854,13.98237],[99.07491,13.97192],[99.09606,13.94585],[99.10202,13.94204],[99.11266,13.9476],[99.1185,13.94041],[99.15805,13.91821],[99.17177,13.9233],[99.16917,13.93632],[99.17604,13.94918],[99.18809,13.9469],[99.21673,13.97214],[99.23845,13.98078],[99.25716,13.96632],[99.26104,13.97598],[99.26806,13.97983],[99.27047,13.97263],[99.27444,13.97359],[99.27988,13.96629],[99.27815,13.98313],[99.28581,13.98906],[99.29655,14.01077],[99.31437,14.01166],[99.32049,14.03345],[99.31598,14.06651],[99.27053,14.08309],[99.25888,14.10332],[99.23611,14.08968],[99.22653,14.1069],[99.22565,14.12993],[99.19469,14.1613],[99.19548,14.17481],[99.18242,14.1913],[99.16996,14.2002],[99.1544,14.19886],[99.13251,14.22662],[99.14094,14.2585],[99.1282,14.27609],[99.12937,14.28013],[99.15058,14.28707],[99.18554,14.2736],[99.20313,14.27209],[99.1886,14.30931],[99.1976,14.32241],[99.20327,14.31738],[99.21215,14.32705],[99.21821,14.32628],[99.21703,14.32989],[99.23346,14.33351],[99.24461,14.34546],[99.25939,14.33665],[99.28263,14.34356],[99.32012,14.32745],[99.34619,14.28937],[99.35907,14.28711],[99.36378,14.28025],[99.35512,14.2821],[99.35036,14.27056],[99.33715,14.26443],[99.33844,14.24559],[99.35089,14.2434],[99.3556,14.23564],[99.38309,14.22545],[99.38409,14.21802],[99.40039,14.20144],[99.4381,14.19354],[99.44418,14.16748],[99.45457,14.1504],[99.48417,14.14034],[99.52813,14.14344],[99.54055,14.13369],[99.56647,14.12645],[99.5717,14.10034],[99.55877,14.0803]]]}},{"type":"Feature","properties":{"kind":"district","name":"ไทรโยค","name_en":"Sai Yok","code":"7102"},"geometry":{"type":"Polygon","coordinates":[[[99.19469,14.1613],[99.22565,14.12993],[99.22653,14.1069],[99.23611,14.08968],[99.25888,14.10332],[99.27053,14.08309],[99.31598,14.06651],[99.32049,14.03345],[99.31437,14.01166],[99.29655,14.01077],[99.28581,13.98906],[99.27815,13.98313],[99.27988,13.96629],[99.27444,13.97359],[99.27047,13.97263],[99.26806,13.97983],[99.26104,13.97598],[99.25716,13.96632],[99.23845,13.98078],[99.21673,13.97214],[99.18809,13.9469],[99.17604,13.94918],[99.16917,13.93632],[99.17177,13.9233],[99.15805,13.91821],[99.1185,13.94041],[99.11266,13.9476],[99.10202,13.94204],[99.09606,13.94585],[99.07491,13.97192],[99.07854,13.98237],[99.07001,13.98876],[99.06146,13.97972],[99.05168,13.98108],[99.04666,13.96374],[99.04253,13.96017],[99.03964,13.9646],[99.02531,13.94874],[99.0188,13.94731],[99.01192,13.98362],[98.99872,14.00968],[98.99814,14.01915],[98.97097,14.0339],[98.97343,14.03987],[98.96874,14.05341],[98.96803,14.08032],[98.95974,14.09665],[98.94559,14.09237],[98.92461,14.1088],[98.89978,14.10842],[98.87613,14.12536],[98.86839,14.14593],[98.85831,14.14928],[98.84685,14.16215],[98.83948,14.16342],[98.82889,14.1758],[98.81828,14.17272],[98.79848,14.1924],[98.78541,14.19475],[98.77483,14.2072],[98.75625,14.21433],[98.74288,14.23272],[98.73972,14.23167],[98.73192,14.24104],[98.7271,14.23846],[98.70533,14.25351],[98.69809,14.2747],[98.68095,14.27419],[98.6679,14.28916],[98.64225,14.30141],[98.63107,14.31585],[98.61458,14.31305],[98.60055,14.32379],[98.59293,14.34491],[98.597,14.36796],[98.59362,14.37677],[98.58969,14.37044],[98.57602,14.36867],[98.57331,14.38069],[98.56489,14.3849],[98.56292,14.39726],[98.55694,14.40369],[98.55766,14.41988],[98.54791,14.42319],[98.5493,14.43482],[98.54232,14.44458],[98.53379,14.44297],[98.54846,14.47431],[98.56662,14.4983],[98.57406,14.5009],[98.57893,14.49575],[98.58656,14.49581],[98.5884,14.50389],[98.60006,14.50787],[98.60165,14.51716],[98.60892,14.51404],[98.61043,14.52013],[98.62015,14.52284],[98.62309,14.5288],[98.62655,14.52287],[98.63252,14.52715],[98.63578,14.52165],[98.63264,14.51899],[98.63599,14.51847],[98.64286,14.5282],[98.65138,14.53069],[98.64464,14.53647],[98.65494,14.54308],[98.681,14.52988],[98.68438,14.52399],[98.71378,14.5168],[98.7199,14.50233],[98.7327,14.50817],[98.73856,14.52069],[98.74717,14.52186],[98.75082,14.51544],[98.75375,14.51881],[98.76457,14.51718],[98.76878,14.52586],[98.7778,14.53006],[98.79118,14.52306],[98.83607,14.55841],[98.89895,14.5108],[98.91914,14.52491],[98.93479,14.48533],[98.94843,14.4772],[98.96131,14.45772],[98.98204,14.44204],[98.99315,14.43936],[98.99281,14.43573],[99.00505,14.43595],[99.0073,14.43008],[99.0019,14.42511],[99.00811,14.41293],[99.01397,14.40504],[99.02329,14.40436],[99.03046,14.38316],[99.03928,14.37306],[99.04641,14.37206],[99.07676,14.32464],[99.08291,14.29118],[99.09106,14.28169],[99.09841,14.25722],[99.13251,14.22662],[99.1544,14.19886],[99.16996,14.2002],[99.18242,14.1913],[99.19548,14.17481],[99.19469,14.1613]]]}},{"type":"Feature","properties":{"kind":"district","name":"พนมทวน","name_en":"Phanom Thuan","code":"7109"},"geometry":{"type":"Polygon","coordinates":[[[99.7086,14.03823],[99.69881,14.0237],[99.68546,14.01993],[99.66441,14.02381],[99.65901,14.04741],[99.66013,14.05912],[99.62298,14.10487],[99.593,14.10437],[99.58645,14.11053],[99.5717,14.10034],[99.56349,14.15811],[99.5701,14.16393],[99.57197,14.18584],[99.56273,14.20339],[99.56335,14.21949],[99.57203,14.22354],[99.57072,14.23505],[99.58235,14.24236],[99.60843,14.23027],[99.62887,14.24653],[99.66339,14.23742],[99.68389,14.23659],[99.70213,14.24361],[99.73233,14.24123],[99.73441,14.25511],[99.74532,14.26211],[99.77365,14.25479],[99.79964,14.26739],[99.80189,14.2759],[99.81981,14.27609],[99.8248,14.26686],[99.82344,14.25024],[99.81376,14.23079],[99.80169,14.22964],[99.79446,14.21824],[99.79679,14.20031],[99.76025,14.17147],[99.77123,14.10208],[99.76813,14.0946],[99.77072,14.08518],[99.76073,14.08794],[99.75473,14.08327],[99.75499,14.07211],[99.74888,14.06372],[99.75121,14.05194],[99.74832,14.04928],[99.74141,14.05525],[99.73542,14.05398],[99.735,14.03134],[99.7086,14.03823]]]}},{"type":"Feature","properties":{"kind":"district","name":"ทองผาภูมิ","name_en":"Thong Pha Phum","code":"7107"},"geometry":{"type":"Polygon","coordinates":[[[98.9136,14.60682],[98.92723,14.598],[98.93288,14.6007],[98.93576,14.59785],[98.93011,14.58609],[98.93525,14.57121],[98.92159,14.5583],[98.92885,14.5538],[98.9379,14.53289],[98.91914,14.52491],[98.89895,14.5108],[98.83607,14.55841],[98.79118,14.52306],[98.7778,14.53006],[98.76878,14.52586],[98.76457,14.51718],[98.75375,14.51881],[98.75082,14.51544],[98.74717,14.52186],[98.73856,14.52069],[98.7327,14.50817],[98.7199,14.50233],[98.71378,14.5168],[98.68438,14.52399],[98.681,14.52988],[98.65494,14.54308],[98.64464,14.53647],[98.65138,14.53069],[98.64286,14.5282],[98.63599,14.51847],[98.63264,14.51899],[98.63578,14.52165],[98.63252,14.52715],[98.62655,14.52287],[98.62309,14.5288],[98.62015,14.52284],[98.61043,14.52013],[98.60892,14.51404],[98.60165,14.51716],[98.60006,14.50787],[98.5884,14.50389],[98.58656,14.49581],[98.57893,14.49575],[98.57406,14.5009],[98.56662,14.4983],[98.54846,14.47431],[98.53379,14.44297],[98.51725,14.47311],[98.51141,14.4774],[98.50958,14.49095],[98.50454,14.49568],[98.50519,14.50846],[98.49796,14.51249],[98.49205,14.54002],[98.48413,14.53404],[98.46949,14.53535],[98.46152,14.53097],[98.45579,14.55617],[98.45965,14.57821],[98.44484,14.59266],[98.43747,14.613],[98.36647,14.66629],[98.36346,14.68825],[98.35287,14.69887],[98.34504,14.69978],[98.33664,14.71084],[98.32973,14.70615],[98.32348,14.7097],[98.29708,14.75022],[98.29429,14.76982],[98.28322,14.7751],[98.277,14.79686],[98.25408,14.81397],[98.24715,14.83185],[98.25853,14.84345],[98.26083,14.85688],[98.22987,14.88945],[98.23416,14.89734],[98.24086,14.89843],[98.2501,14.91577],[98.25799,14.9149],[98.26315,14.91951],[98.27844,14.91653],[98.29947,14.91947],[98.31141,14.90574],[98.30671,14.89284],[98.32305,14.89232],[98.32644,14.88765],[98.33246,14.89744],[98.33833,14.89332],[98.34036,14.89817],[98.34429,14.89646],[98.33898,14.90456],[98.34775,14.90658],[98.35225,14.91666],[98.34792,14.91961],[98.35066,14.93273],[98.37683,14.95152],[98.38184,14.93167],[98.38795,14.93278],[98.3894,14.93781],[98.39398,14.93565],[98.41003,14.91094],[98.41057,14.92996],[98.41438,14.93348],[98.42524,14.92684],[98.43556,14.93239],[98.44864,14.90278],[98.44666,14.89171],[98.45685,14.86805],[98.46377,14.86851],[98.46989,14.87638],[98.4825,14.87569],[98.49122,14.88323],[98.50136,14.87684],[98.51185,14.8786],[98.54529,14.9093],[98.55508,14.90722],[98.56219,14.91335],[98.58351,14.89155],[98.58854,14.89243],[98.58987,14.89864],[98.60233,14.89962],[98.60781,14.89637],[98.61189,14.87769],[98.61667,14.87624],[98.62494,14.85279],[98.62957,14.85413],[98.62804,14.8609],[98.64021,14.89705],[98.66033,14.90338],[98.65896,14.91206],[98.65064,14.91916],[98.64274,14.93569],[98.6474,14.94802],[98.65938,14.94857],[98.66361,14.95842],[98.63341,15.01214],[98.64024,15.01528],[98.6397,15.02525],[98.64641,15.0286],[98.64596,15.04192],[98.65567,15.0605],[98.65128,15.07262],[98.66379,15.09253],[98.67596,15.09928],[98.6878,15.11409],[98.7017,15.11831],[98.70558,15.13685],[98.70085,15.15282],[98.70855,15.1467],[98.71346,15.15232],[98.73046,15.1477],[98.73534,15.16337],[98.77287,15.18894],[98.77207,15.1977],[98.77955,15.19774],[98.7815,15.2082],[98.79311,15.2075],[98.8074,15.212],[98.81187,15.21847],[98.81798,15.21749],[98.81522,15.23021],[98.81851,15.2358],[98.8479,15.25578],[98.85224,15.26292],[98.86393,15.26733],[98.8712,15.26518],[98.88649,15.27542],[98.91162,15.26839],[98.92272,15.24651],[98.94326,15.25272],[98.95536,15.24743],[98.96404,15.20599],[98.97205,15.19075],[98.98436,15.18029],[98.99409,15.16515],[99.00047,15.16424],[99.0066,15.14442],[99.00029,15.13739],[98.99769,15.1051],[99.00655,15.09834],[99.00988,15.08612],[99.00031,15.07133],[98.99471,15.03986],[98.98919,15.03013],[98.97573,15.02279],[98.96672,14.98676],[98.97102,14.97509],[98.96278,14.9693],[98.96848,14.95037],[98.96631,14.93153],[98.97295,14.92458],[98.9714,14.90342],[98.97522,14.90142],[98.97062,14.86386],[98.97603,14.86058],[98.97235,14.83449],[98.9659,14.82812],[98.97034,14.82547],[98.97029,14.81905],[98.95867,14.80191],[98.96515,14.78896],[98.96369,14.77786],[98.95337,14.76179],[98.93701,14.75869],[98.91253,14.77003],[98.90401,14.76639],[98.90754,14.7489],[98.90282,14.74743],[98.88756,14.72203],[98.8782,14.71657],[98.8787,14.70438],[98.87086,14.69934],[98.88069,14.68046],[98.8811,14.66229],[98.88767,14.65601],[98.8868,14.63874],[98.9136,14.60682]]]}},{"type":"Feature","properties":{"kind":"district","name":"สังขละบุรี","name_en":"Sangkhla Buri","code":"7108"},"geometry":{"type":"Polygon","coordinates":[[[98.65128,15.07262],[98.65567,15.0605],[98.64596,15.04192],[98.64641,15.0286],[98.6397,15.02525],[98.64024,15.01528],[98.63341,15.01214],[98.66361,14.95842],[98.65938,14.94857],[98.6474,14.94802],[98.64274,14.93569],[98.65064,14.91916],[98.65896,14.91206],[98.66033,14.90338],[98.64021,14.89705],[98.62804,14.8609],[98.62957,14.85413],[98.62494,14.85279],[98.61667,14.87624],[98.61189,14.87769],[98.60781,14.89637],[98.60233,14.89962],[98.58987,14.89864],[98.58854,14.89243],[98.58351,14.89155],[98.56219,14.91335],[98.55508,14.90722],[98.54529,14.9093],[98.51185,14.8786],[98.50136,14.87684],[98.49122,14.88323],[98.4825,14.87569],[98.46989,14.87638],[98.46377,14.86851],[98.45685,14.86805],[98.44666,14.89171],[98.44864,14.90278],[98.43556,14.93239],[98.42524,14.92684],[98.41438,14.93348],[98.41057,14.92996],[98.41003,14.91094],[98.39398,14.93565],[98.3894,14.93781],[98.38795,14.93278],[98.38184,14.93167],[98.37683,14.95152],[98.35066,14.93273],[98.34792,14.91961],[98.35225,14.91666],[98.34775,14.90658],[98.33898,14.90456],[98.34429,14.89646],[98.34036,14.89817],[98.33833,14.89332],[98.33246,14.89744],[98.32644,14.88765],[98.32305,14.89232],[98.30671,14.89284],[98.31141,14.90574],[98.29947,14.91947],[98.27844,14.91653],[98.26315,14.91951],[98.25799,14.9149],[98.2501,14.91577],[98.2436,14.92322],[98.24343,14.93901],[98.22853,14.94825],[98.23247,14.96737],[98.20889,14.98288],[98.21272,15.01958],[98.22447,15.02694],[98.2351,15.0428],[98.22106,15.05513],[98.21024,15.07726],[98.20492,15.07745],[98.18419,15.09652],[98.18281,15.11366],[98.19538,15.13454],[98.18956,15.14055],[98.1902,15.14919],[98.20003,15.15577],[98.20166,15.16527],[98.21364,15.18022],[98.20777,15.18992],[98.20949,15.2],[98.19895,15.21046],[98.20196,15.21489],[98.19771,15.23253],[98.20285,15.23646],[98.21373,15.23553],[98.22244,15.22376],[98.23643,15.21945],[98.25344,15.22556],[98.25792,15.22354],[98.26035,15.23516],[98.27319,15.25139],[98.28018,15.27013],[98.30349,15.28028],[98.29446,15.29764],[98.30057,15.30353],[98.29596,15.30848],[98.2984,15.31313],[98.30763,15.31242],[98.33636,15.29443],[98.35271,15.29291],[98.36418,15.28332],[98.37511,15.28189],[98.40214,15.25445],[98.41414,15.2646],[98.41699,15.27281],[98.40897,15.28713],[98.4141,15.29442],[98.40204,15.30589],[98.38809,15.30352],[98.40072,15.30961],[98.39998,15.32156],[98.41497,15.32319],[98.40991,15.33646],[98.41642,15.36338],[98.43122,15.36794],[98.43562,15.3617],[98.4442,15.37121],[98.45534,15.36787],[98.44962,15.38305],[98.45923,15.38613],[98.46312,15.37594],[98.47116,15.37225],[98.48148,15.37777],[98.48161,15.39045],[98.49008,15.39379],[98.50126,15.38888],[98.509,15.37587],[98.51606,15.37965],[98.52482,15.37086],[98.53771,15.37063],[98.54763,15.35896],[98.54458,15.35432],[98.55089,15.3447],[98.5474,15.34276],[98.54965,15.33779],[98.55637,15.33473],[98.57945,15.37362],[98.58546,15.47102],[98.55302,15.6023],[98.56302,15.63944],[98.55855,15.65111],[98.58313,15.66036],[98.59023,15.64485],[98.60701,15.64123],[98.61257,15.64449],[98.62696,15.63852],[98.62248,15.6306],[98.62583,15.62631],[98.64065,15.63806],[98.64792,15.63322],[98.66106,15.59883],[98.66777,15.59488],[98.70649,15.53549],[98.72368,15.51757],[98.71801,15.51285],[98.71879,15.50631],[98.71253,15.50481],[98.70338,15.50983],[98.70262,15.50152],[98.72929,15.48856],[98.73737,15.47948],[98.74706,15.48268],[98.75921,15.47247],[98.75491,15.45854],[98.75922,15.45143],[98.75447,15.44109],[98.77866,15.42386],[98.78316,15.40873],[98.79259,15.40258],[98.82951,15.35574],[98.83139,15.34568],[98.83956,15.34858],[98.87098,15.32487],[98.89137,15.29008],[98.88649,15.27542],[98.8712,15.26518],[98.86393,15.26733],[98.85224,15.26292],[98.8479,15.25578],[98.81851,15.2358],[98.81522,15.23021],[98.81798,15.21749],[98.81187,15.21847],[98.8074,15.212],[98.79311,15.2075],[98.7815,15.2082],[98.77955,15.19774],[98.77207,15.1977],[98.77287,15.18894],[98.73534,15.16337],[98.73046,15.1477],[98.71346,15.15232],[98.70855,15.1467],[98.70085,15.15282],[98.70558,15.13685],[98.7017,15.11831],[98.6878,15.11409],[98.67596,15.09928],[98.66379,15.09253],[98.65128,15.07262]]]}},{"type":"Feature","properties":{"kind":"district","name":"ท่ามะกา","name_en":"Tha Maka","code":"7105"},"geometry":{"type":"Polygon","coordinates":[[[99.81992,13.86012],[99.81806,13.82557],[99.81099,13.80913],[99.80231,13.81013],[99.79763,13.8165],[99.78312,13.82211],[99.71284,13.82784],[99.68894,13.8376],[99.67282,13.83993],[99.66707,13.84613],[99.67347,13.85554],[99.70759,13.87683],[99.70609,13.88412],[99.71237,13.89015],[99.72092,13.91334],[99.71462,13.93875],[99.7322,13.95525],[99.72342,13.96113],[99.70794,13.98566],[99.71657,14.0022],[99.71128,14.00838],[99.69837,14.01055],[99.69881,14.0237],[99.7086,14.03823],[99.735,14.03134],[99.73542,14.05398],[99.74141,14.05525],[99.74832,14.04928],[99.75121,14.05194],[99.74888,14.06372],[99.75499,14.07211],[99.75473,14.08327],[99.76073,14.08794],[99.77072,14.08518],[99.76813,14.0946],[99.77725,14.09314],[99.79086,14.09964],[99.79682,14.08553],[99.80879,14.08109],[99.81078,14.06546],[99.82123,14.06097],[99.83367,14.06097],[99.84914,14.05205],[99.84891,14.04306],[99.83714,14.0308],[99.8345,14.01661],[99.83748,14.01185],[99.82965,13.99832],[99.85285,13.96422],[99.86203,13.96655],[99.87623,13.96195],[99.87974,13.95027],[99.85503,13.91693],[99.83574,13.86641],[99.82267,13.86647],[99.81992,13.86012]]]}},{"type":"Feature","properties":{"kind":"district","name":"ท่าม่วง","name_en":"Tha Muang","code":"7106"},"geometry":{"type":"Polygon","coordinates":[[[99.60592,13.79869],[99.58714,13.77905],[99.5506,13.75953],[99.5322,13.75987],[99.51903,13.7675],[99.51596,13.7641],[99.50541,13.76619],[99.48929,13.78187],[99.48044,13.80051],[99.4702,13.80635],[99.45925,13.82403],[99.45855,13.83364],[99.47696,13.83811],[99.4778,13.84505],[99.48458,13.84464],[99.49487,13.85807],[99.49106,13.86781],[99.49832,13.89227],[99.50346,13.89429],[99.50958,13.90859],[99.53131,13.91004],[99.57427,13.92794],[99.55839,13.94439],[99.54526,13.97333],[99.55035,13.9953],[99.56499,14.00688],[99.57658,14.00773],[99.57996,14.01894],[99.58635,14.0232],[99.58474,14.03373],[99.59481,14.03757],[99.58681,14.04066],[99.58578,14.04611],[99.57121,14.0576],[99.572,14.06692],[99.55877,14.0803],[99.5717,14.10034],[99.58645,14.11053],[99.593,14.10437],[99.62298,14.10487],[99.66013,14.05912],[99.65901,14.04741],[99.66441,14.02381],[99.68546,14.01993],[99.69881,14.0237],[99.69837,14.01055],[99.71128,14.00838],[99.71657,14.0022],[99.70794,13.98566],[99.72342,13.96113],[99.7322,13.95525],[99.71462,13.93875],[99.72092,13.91334],[99.71237,13.89015],[99.70609,13.88412],[99.70759,13.87683],[99.67347,13.85554],[99.63632,13.81358],[99.61974,13.80135],[99.60592,13.79869]]]}},{"type":"Feature","properties":{"kind":"district","name":"หนองปรือ","name_en":"Nong Prue","code":"7112"},"geometry":{"type":"Polygon","coordinates":[[[99.54456,14.69824],[99.53556,14.68399],[99.53308,14.66984],[99.54308,14.65504],[99.54163,14.64141],[99.56002,14.61559],[99.55311,14.6011],[99.58194,14.5916],[99.57881,14.58868],[99.56827,14.59149],[99.5438,14.57692],[99.54677,14.55684],[99.53606,14.55596],[99.52424,14.54484],[99.51017,14.54195],[99.50544,14.54739],[99.49627,14.53842],[99.4584,14.53338],[99.42234,14.5515],[99.4199,14.55966],[99.42692,14.57748],[99.41234,14.57933],[99.39957,14.59227],[99.40538,14.60682],[99.39783,14.61743],[99.38233,14.61989],[99.37611,14.61449],[99.37201,14.61683],[99.35836,14.61191],[99.3481,14.60359],[99.34014,14.60911],[99.33744,14.6233],[99.32711,14.62388],[99.31876,14.63382],[99.34296,14.64906],[99.35211,14.66361],[99.35193,14.67487],[99.33899,14.68718],[99.34068,14.70156],[99.33478,14.70283],[99.3305,14.69733],[99.322,14.69878],[99.28782,14.68406],[99.28583,14.70423],[99.2895,14.71172],[99.28511,14.71685],[99.2839,14.73791],[99.28815,14.74212],[99.27835,14.74941],[99.27825,14.76285],[99.27067,14.76723],[99.26894,14.77754],[99.27321,14.78597],[99.26383,14.79135],[99.25092,14.8073],[99.25044,14.81516],[99.23932,14.82475],[99.2474,14.83349],[99.2574,14.83492],[99.26722,14.83499],[99.28083,14.82799],[99.2939,14.83137],[99.30284,14.82606],[99.30885,14.81278],[99.31541,14.81405],[99.33033,14.80706],[99.34083,14.78576],[99.35879,14.77139],[99.36621,14.77367],[99.37279,14.76715],[99.39014,14.76579],[99.41159,14.77311],[99.42118,14.78135],[99.43645,14.77425],[99.43182,14.75262],[99.44395,14.74215],[99.44254,14.73198],[99.48097,14.7088],[99.49631,14.70453],[99.50884,14.70886],[99.51618,14.70252],[99.53345,14.70809],[99.54247,14.71576],[99.54456,14.69824]]]}},{"type":"Feature","properties":{"kind":"district","name":"ห้วยกระเจา","name_en":"Huai Krachao","code":"7113"},"geometry":{"type":"Polygon","coordinates":[[[99.81433,14.33773],[99.82424,14.29494],[99.81981,14.27609],[99.80189,14.2759],[99.79964,14.26739],[99.77365,14.25479],[99.74532,14.26211],[99.73441,14.25511],[99.73233,14.24123],[99.70213,14.24361],[99.68389,14.23659],[99.66339,14.23742],[99.62887,14.24653],[99.60843,14.23027],[99.58235,14.24236],[99.58756,14.25283],[99.58074,14.26605],[99.58568,14.27369],[99.58098,14.27632],[99.58029,14.28365],[99.58825,14.29392],[99.58904,14.30552],[99.58047,14.30567],[99.57574,14.31164],[99.55443,14.31795],[99.54218,14.32929],[99.54793,14.34074],[99.54556,14.3509],[99.54906,14.3587],[99.54657,14.37362],[99.54139,14.37922],[99.55793,14.41604],[99.55919,14.43568],[99.56943,14.46129],[99.58593,14.47163],[99.62984,14.45777],[99.65792,14.42947],[99.67312,14.42301],[99.69801,14.42414],[99.75426,14.39127],[99.76948,14.3936],[99.77817,14.40252],[99.77924,14.39644],[99.79545,14.39642],[99.81728,14.38183],[99.82047,14.35167],[99.81433,14.33773]]]}},{"type":"Feature","properties":{"kind":"district","name":"เลาขวัญ","name_en":"Lao Khwan","code":"7110"},"geometry":{"type":"Polygon","coordinates":[[[99.81679,14.43302],[99.82355,14.39803],[99.82923,14.38142],[99.81728,14.38183],[99.79545,14.39642],[99.77924,14.39644],[99.77817,14.40252],[99.76948,14.3936],[99.75426,14.39127],[99.69801,14.42414],[99.67312,14.42301],[99.65792,14.42947],[99.62984,14.45777],[99.58593,14.47163],[99.56943,14.46129],[99.57705,14.47704],[99.58486,14.52452],[99.58961,14.52631],[99.59618,14.5465],[99.59401,14.56499],[99.5965,14.57748],[99.58194,14.5916],[99.55311,14.6011],[99.56002,14.61559],[99.54163,14.64141],[99.54308,14.65504],[99.53308,14.66984],[99.53556,14.68399],[99.54456,14.69824],[99.54247,14.71576],[99.55732,14.7307],[99.57168,14.73228],[99.5777,14.75129],[99.57102,14.75998],[99.5696,14.7885],[99.61248,14.7821],[99.63265,14.80117],[99.65522,14.80377],[99.68122,14.78436],[99.68697,14.77403],[99.69537,14.77296],[99.70171,14.76141],[99.71459,14.75472],[99.74235,14.75367],[99.75416,14.74301],[99.76179,14.74543],[99.77761,14.73964],[99.78814,14.74383],[99.80155,14.73451],[99.79627,14.72482],[99.79925,14.71614],[99.79305,14.71045],[99.7967,14.6959],[99.80129,14.69176],[99.79874,14.67766],[99.81027,14.66856],[99.82096,14.6508],[99.82181,14.63324],[99.80569,14.61984],[99.80229,14.61192],[99.79816,14.56793],[99.79544,14.56249],[99.79192,14.56396],[99.79514,14.54708],[99.80384,14.53694],[99.81825,14.5278],[99.8152,14.52153],[99.82141,14.50113],[99.81679,14.43302]]]}},{"type":"Feature","properties":{"kind":"district","name":"ด่านมะขามเตี้ย","name_en":"Dan Makham Tia","code":"7111"},"geometry":{"type":"Polygon","coordinates":[[[99.45925,13.82403],[99.4702,13.80635],[99.46674,13.79533],[99.45327,13.78092],[99.41282,13.77337],[99.41005,13.76794],[99.35788,13.75247],[99.31605,13.76695],[99.30909,13.77551],[99.29515,13.77349],[99.26999,13.74555],[99.25491,13.74503],[99.23964,13.7497],[99.22303,13.74772],[99.20128,13.72944],[99.17724,13.73394],[99.17303,13.73982],[99.16747,13.73415],[99.16762,13.72611],[99.16195,13.72575],[99.15488,13.73516],[99.15429,13.75469],[99.14873,13.75658],[99.14886,13.76811],[99.15712,13.78223],[99.1789,13.80028],[99.17911,13.81112],[99.1721,13.81972],[99.17181,13.82797],[99.17341,13.84605],[99.17831,13.851],[99.18308,13.87309],[99.17746,13.88006],[99.18995,13.87823],[99.19128,13.88142],[99.19686,13.8757],[99.20963,13.88505],[99.21662,13.87441],[99.22945,13.86867],[99.26087,13.88559],[99.26024,13.90422],[99.27222,13.91232],[99.27506,13.92642],[99.28736,13.93412],[99.29503,13.95266],[99.304,13.948],[99.31393,13.95452],[99.32074,13.94947],[99.32215,13.9404],[99.35527,13.94019],[99.36142,13.9352],[99.37275,13.95261],[99.39517,13.93527],[99.40679,13.93243],[99.41689,13.93902],[99.43053,13.92581],[99.44814,13.92932],[99.45279,13.91014],[99.47162,13.89606],[99.4778,13.9003],[99.47983,13.90909],[99.48337,13.90425],[99.50958,13.90859],[99.50346,13.89429],[99.49832,13.89227],[99.49106,13.86781],[99.49487,13.85807],[99.48458,13.84464],[99.4778,13.84505],[99.47696,13.83811],[99.45855,13.83364],[99.45925,13.82403]]]}}]}